<?xml version="1.0" encoding="UTF-8"?>
<ndm xmlns:xsi="http://www.w3.org/2001/XMLSchema-instance" xsi:noNamespaceSchemaLocation="https://sanaregistry.org/r/ndmxml_unqualified/ndmxml-2.0.0-master-2.0.xsd">
<omm id="CCSDS_OMM_VERS" version="2.0">
<header><CREATION_DATE/><ORIGINATOR/></header><body><segment><metadata><OBJECT_NAME>ONEWEB-0616</OBJECT_NAME><OBJECT_ID>2023-004T</OBJECT_ID><CENTER_NAME>EARTH</CENTER_NAME><REF_FRAME>TEME</REF_FRAME><TIME_SYSTEM>UTC</TIME_SYSTEM><MEAN_ELEMENT_THEORY>SGP4</MEAN_ELEMENT_THEORY></metadata><data><meanElements><EPOCH>2024-04-09T10:43:25.834656</EPOCH><MEAN_MOTION>13.17649318</MEAN_MOTION><ECCENTRICITY>.0000836</ECCENTRICITY><INCLINATION>87.9231</INCLINATION><RA_OF_ASC_NODE>164.7958</RA_OF_ASC_NODE><ARG_OF_PERICENTER>101.3289</ARG_OF_PERICENTER><MEAN_ANOMALY>258.7937</MEAN_ANOMALY></meanElements><tleParameters><EPHEMERIS_TYPE>0</EPHEMERIS_TYPE><CLASSIFICATION_TYPE>U</CLASSIFICATION_TYPE><NORAD_CAT_ID>55157</NORAD_CAT_ID><ELEMENT_SET_NO>999</ELEMENT_SET_NO><REV_AT_EPOCH>6251</REV_AT_EPOCH><BSTAR>.14858E-4</BSTAR><MEAN_MOTION_DOT>.19E-6</MEAN_MOTION_DOT><MEAN_MOTION_DDOT>0</MEAN_MOTION_DDOT></tleParameters></data></segment></body></omm>
<omm id="CCSDS_OMM_VERS" version="2.0">
<header><CREATION_DATE/><ORIGINATOR/></header><body><segment><metadata><OBJECT_NAME>ONEWEB-0617</OBJECT_NAME><OBJECT_ID>2023-004U</OBJECT_ID><CENTER_NAME>EARTH</CENTER_NAME><REF_FRAME>TEME</REF_FRAME><TIME_SYSTEM>UTC</TIME_SYSTEM><MEAN_ELEMENT_THEORY>SGP4</MEAN_ELEMENT_THEORY></metadata><data><meanElements><EPOCH>2024-04-09T22:13:47.663040</EPOCH><MEAN_MOTION>13.11416228</MEAN_MOTION><ECCENTRICITY>.000249</ECCENTRICITY><INCLINATION>87.9025</INCLINATION><RA_OF_ASC_NODE>179.8529</RA_OF_ASC_NODE><ARG_OF_PERICENTER>99.8419</ARG_OF_PERICENTER><MEAN_ANOMALY>260.2990</MEAN_ANOMALY></meanElements><tleParameters><EPHEMERIS_TYPE>0</EPHEMERIS_TYPE><CLASSIFICATION_TYPE>U</CLASSIFICATION_TYPE><NORAD_CAT_ID>55158</NORAD_CAT_ID><ELEMENT_SET_NO>999</ELEMENT_SET_NO><REV_AT_EPOCH>6123</REV_AT_EPOCH><BSTAR>-.83689E-3</BSTAR><MEAN_MOTION_DOT>-.284E-5</MEAN_MOTION_DOT><MEAN_MOTION_DDOT>0</MEAN_MOTION_DDOT></tleParameters></data></segment></body></omm>
<omm id="CCSDS_OMM_VERS" version="2.0">
<header><CREATION_DATE/><ORIGINATOR/></header><body><segment><metadata><OBJECT_NAME>ONEWEB-0618</OBJECT_NAME><OBJECT_ID>2023-004V</OBJECT_ID><CENTER_NAME>EARTH</CENTER_NAME><REF_FRAME>TEME</REF_FRAME><TIME_SYSTEM>UTC</TIME_SYSTEM><MEAN_ELEMENT_THEORY>SGP4</MEAN_ELEMENT_THEORY></metadata><data><meanElements><EPOCH>2024-04-09T19:14:48.918048</EPOCH><MEAN_MOTION>14.26784229</MEAN_MOTION><ECCENTRICITY>.0014894</ECCENTRICITY><INCLINATION>86.9030</INCLINATION><RA_OF_ASC_NODE>117.5989</RA_OF_ASC_NODE><ARG_OF_PERICENTER>138.6729</ARG_OF_PERICENTER><MEAN_ANOMALY>221.5593</MEAN_ANOMALY></meanElements><tleParameters><EPHEMERIS_TYPE>0</EPHEMERIS_TYPE><CLASSIFICATION_TYPE>U</CLASSIFICATION_TYPE><NORAD_CAT_ID>55159</NORAD_CAT_ID><ELEMENT_SET_NO>999</ELEMENT_SET_NO><REV_AT_EPOCH>6559</REV_AT_EPOCH><BSTAR>.90069E-4</BSTAR><MEAN_MOTION_DOT>.237E-5</MEAN_MOTION_DOT><MEAN_MOTION_DDOT>0</MEAN_MOTION_DDOT></tleParameters></data></segment></body></omm>
<omm id="CCSDS_OMM_VERS" version="2.0">
<header><CREATION_DATE/><ORIGINATOR/></header><body><segment><metadata><OBJECT_NAME>ONEWEB-0619</OBJECT_NAME><OBJECT_ID>2023-004W</OBJECT_ID><CENTER_NAME>EARTH</CENTER_NAME><REF_FRAME>TEME</REF_FRAME><TIME_SYSTEM>UTC</TIME_SYSTEM><MEAN_ELEMENT_THEORY>SGP4</MEAN_ELEMENT_THEORY></metadata><data><meanElements><EPOCH>2024-04-09T22:25:04.747872</EPOCH><MEAN_MOTION>13.17650738</MEAN_MOTION><ECCENTRICITY>.0001642</ECCENTRICITY><INCLINATION>87.9232</INCLINATION><RA_OF_ASC_NODE>164.6758</RA_OF_ASC_NODE><ARG_OF_PERICENTER>86.1707</ARG_OF_PERICENTER><MEAN_ANOMALY>273.9612</MEAN_ANOMALY></meanElements><tleParameters><EPHEMERIS_TYPE>0</EPHEMERIS_TYPE><CLASSIFICATION_TYPE>U</CLASSIFICATION_TYPE><NORAD_CAT_ID>55160</NORAD_CAT_ID><ELEMENT_SET_NO>999</ELEMENT_SET_NO><REV_AT_EPOCH>6247</REV_AT_EPOCH><BSTAR>.10657E-3</BSTAR><MEAN_MOTION_DOT>.54E-6</MEAN_MOTION_DOT><MEAN_MOTION_DDOT>0</MEAN_MOTION_DDOT></tleParameters></data></segment></body></omm>
<omm id="CCSDS_OMM_VERS" version="2.0">
<header><CREATION_DATE/><ORIGINATOR/></header><body><segment><metadata><OBJECT_NAME>ONEWEB-0620</OBJECT_NAME><OBJECT_ID>2023-004X</OBJECT_ID><CENTER_NAME>EARTH</CENTER_NAME><REF_FRAME>TEME</REF_FRAME><TIME_SYSTEM>UTC</TIME_SYSTEM><MEAN_ELEMENT_THEORY>SGP4</MEAN_ELEMENT_THEORY></metadata><data><meanElements><EPOCH>2024-04-09T22:06:47.183616</EPOCH><MEAN_MOTION>13.11413210</MEAN_MOTION><ECCENTRICITY>.0002571</ECCENTRICITY><INCLINATION>87.9029</INCLINATION><RA_OF_ASC_NODE>179.8625</RA_OF_ASC_NODE><ARG_OF_PERICENTER>105.4251</ARG_OF_PERICENTER><MEAN_ANOMALY>254.7161</MEAN_ANOMALY></meanElements><tleParameters><EPHEMERIS_TYPE>0</EPHEMERIS_TYPE><CLASSIFICATION_TYPE>U</CLASSIFICATION_TYPE><NORAD_CAT_ID>55161</NORAD_CAT_ID><ELEMENT_SET_NO>999</ELEMENT_SET_NO><REV_AT_EPOCH>6120</REV_AT_EPOCH><BSTAR>-.32513E-3</BSTAR><MEAN_MOTION_DOT>-.103E-5</MEAN_MOTION_DOT><MEAN_MOTION_DDOT>0</MEAN_MOTION_DDOT></tleParameters></data></segment></body></omm>
<omm id="CCSDS_OMM_VERS" version="2.0">
<header><CREATION_DATE/><ORIGINATOR/></header><body><segment><metadata><OBJECT_NAME>ONEWEB-0621</OBJECT_NAME><OBJECT_ID>2023-004Y</OBJECT_ID><CENTER_NAME>EARTH</CENTER_NAME><REF_FRAME>TEME</REF_FRAME><TIME_SYSTEM>UTC</TIME_SYSTEM><MEAN_ELEMENT_THEORY>SGP4</MEAN_ELEMENT_THEORY></metadata><data><meanElements><EPOCH>2024-04-09T11:44:58.057440</EPOCH><MEAN_MOTION>13.11418900</MEAN_MOTION><ECCENTRICITY>.0002076</ECCENTRICITY><INCLINATION>87.9028</INCLINATION><RA_OF_ASC_NODE>179.9186</RA_OF_ASC_NODE><ARG_OF_PERICENTER>90.2398</ARG_OF_PERICENTER><MEAN_ANOMALY>269.8967</MEAN_ANOMALY></meanElements><tleParameters><EPHEMERIS_TYPE>0</EPHEMERIS_TYPE><CLASSIFICATION_TYPE>U</CLASSIFICATION_TYPE><NORAD_CAT_ID>55162</NORAD_CAT_ID><ELEMENT_SET_NO>999</ELEMENT_SET_NO><REV_AT_EPOCH>6112</REV_AT_EPOCH><BSTAR>-.13297E-2</BSTAR><MEAN_MOTION_DOT>-.459E-5</MEAN_MOTION_DOT><MEAN_MOTION_DDOT>0</MEAN_MOTION_DDOT></tleParameters></data></segment></body></omm>
<omm id="CCSDS_OMM_VERS" version="2.0">
<header><CREATION_DATE/><ORIGINATOR/></header><body><segment><metadata><OBJECT_NAME>ONEWEB-0622</OBJECT_NAME><OBJECT_ID>2023-004Z</OBJECT_ID><CENTER_NAME>EARTH</CENTER_NAME><REF_FRAME>TEME</REF_FRAME><TIME_SYSTEM>UTC</TIME_SYSTEM><MEAN_ELEMENT_THEORY>SGP4</MEAN_ELEMENT_THEORY></metadata><data><meanElements><EPOCH>2024-04-09T11:54:20.337408</EPOCH><MEAN_MOTION>13.11420418</MEAN_MOTION><ECCENTRICITY>.000298</ECCENTRICITY><INCLINATION>87.9027</INCLINATION><RA_OF_ASC_NODE>179.9325</RA_OF_ASC_NODE><ARG_OF_PERICENTER>96.3021</ARG_OF_PERICENTER><MEAN_ANOMALY>263.8446</MEAN_ANOMALY></meanElements><tleParameters><EPHEMERIS_TYPE>0</EPHEMERIS_TYPE><CLASSIFICATION_TYPE>U</CLASSIFICATION_TYPE><NORAD_CAT_ID>55163</NORAD_CAT_ID><ELEMENT_SET_NO>999</ELEMENT_SET_NO><REV_AT_EPOCH>6111</REV_AT_EPOCH><BSTAR>.90899E-4</BSTAR><MEAN_MOTION_DOT>.45E-6</MEAN_MOTION_DOT><MEAN_MOTION_DDOT>0</MEAN_MOTION_DDOT></tleParameters></data></segment></body></omm>
<omm id="CCSDS_OMM_VERS" version="2.0">
<header><CREATION_DATE/><ORIGINATOR/></header><body><segment><metadata><OBJECT_NAME>ONEWEB-0623</OBJECT_NAME><OBJECT_ID>2023-004AA</OBJECT_ID><CENTER_NAME>EARTH</CENTER_NAME><REF_FRAME>TEME</REF_FRAME><TIME_SYSTEM>UTC</TIME_SYSTEM><MEAN_ELEMENT_THEORY>SGP4</MEAN_ELEMENT_THEORY></metadata><data><meanElements><EPOCH>2024-04-09T22:18:15.353568</EPOCH><MEAN_MOTION>13.17647948</MEAN_MOTION><ECCENTRICITY>.0002801</ECCENTRICITY><INCLINATION>87.9234</INCLINATION><RA_OF_ASC_NODE>164.7302</RA_OF_ASC_NODE><ARG_OF_PERICENTER>89.4083</ARG_OF_PERICENTER><MEAN_ANOMALY>270.7369</MEAN_ANOMALY></meanElements><tleParameters><EPHEMERIS_TYPE>0</EPHEMERIS_TYPE><CLASSIFICATION_TYPE>U</CLASSIFICATION_TYPE><NORAD_CAT_ID>55164</NORAD_CAT_ID><ELEMENT_SET_NO>999</ELEMENT_SET_NO><REV_AT_EPOCH>6246</REV_AT_EPOCH><BSTAR>.14384E-3</BSTAR><MEAN_MOTION_DOT>.69E-6</MEAN_MOTION_DOT><MEAN_MOTION_DDOT>0</MEAN_MOTION_DDOT></tleParameters></data></segment></body></omm>

</ndm>
