ONEWEB-0616             
1 55157U 23004T   24100.44682679  .00000019  00000+0  14858-4 0  9994
2 55157  87.9231 164.7958 0000836 101.3289 258.7937 13.17649318 62514
ONEWEB-0617             
1 55158U 23004U   24100.92624610 -.00000284  00000+0 -83689-3 0  9992
2 55158  87.9025 179.8529 0002490  99.8419 260.2990 13.11416228 61232
ONEWEB-0618             
1 55159U 23004V   24100.80195507  .00000237  00000+0  90069-4 0  9995
2 55159  86.9030 117.5989 0014894 138.6729 221.5593 14.26784229 65592
ONEWEB-0619             
1 55160U 23004W   24100.93408273  .00000054  00000+0  10657-3 0  9999
2 55160  87.9232 164.6758 0001642  86.1707 273.9612 13.17650738 62479
ONEWEB-0620             
1 55161U 23004X   24100.92137944 -.00000103  00000+0 -32513-3 0  9995
2 55161  87.9029 179.8625 0002571 105.4251 254.7161 13.11413210 61208
ONEWEB-0621             
1 55162U 23004Y   24100.48956085 -.00000459  00000+0 -13297-2 0  9993
2 55162  87.9028 179.9186 0002076  90.2398 269.8967 13.11418900 61127
ONEWEB-0622             
1 55163U 23004Z   24100.49606872  .00000045  00000+0  90899-4 0  9995
2 55163  87.9027 179.9325 0002980  96.3021 263.8446 13.11420418 61118
ONEWEB-0623             
1 55164U 23004AA  24100.92934437  .00000069  00000+0  14384-3 0  9995
2 55164  87.9234 164.7302 0002801  89.4083 270.7369 13.17647948 62464
